158P/Kowal-LINEAR,e,7.9345,135.8028,193.3570,4.869288,0.0917288,0.01659505,309.5754,06/23.0/2020,2000,g  9.0,4.0
# From MPEC 2020-L06
159P/LONEOS,e,23.4611,55.0066,4.6275,5.856678,0.0695388,0.38145095,53.0570,06/23.0/2020,2000,g 10.0,4.0
# From MPEC 2019-TG9
160P/LINEAR,e,15.6157,333.3660,12.6589,3.772139,0.1345310,0.52615668,27.4038,06/23.0/2020,2000,g 15.5,2.0
# From MPC 75721
161P/Hartley-IRAS,e,95.7418,1.4664,46.9185,7.727271,0.0458844,0.83451968,252.1676,06/23.0/2020,2000,g  8.5,6.0
# From MPEC 2020-HN5
162P/Siding Spring,e,27.5542,30.9193,357.1170,3.091240,0.1813448,0.58295530,329.5693,06/23.0/2020,2000,g 12.0,4.0
# From MPEC 2020-HN5
163P/NEAT,e,12.7079,102.0921,349.6660,3.769667,0.1346634,0.45185091,43.4760,06/23.0/2020,2000,g 14.5,4.0
# From MPC106349
164P/Christensen,e,16.2534,88.3051,325.8571,3.658201,0.1408649,0.53967184,106.1750,06/23.0/2020,2000,g 11.0,4.0
# From MPC 75721
165P/LINEAR,e,15.8991,0.7594,126.2159,17.90260,0.0130116,0.61473756,95.5063,06/23.0/2020,2000,g 11.5,2.0
# From MPC 75722
166P/NEAT,e,15.3618,64.5004,321.4503,13.83159,0.0191600,0.38212033,126.9015,06/23.0/2020,2000,g  5.5,4.0
# From MPC 75722
167P/CINEOS,e,19.1216,295.6520,344.1861,16.18797,0.0151327,0.27302156,105.7424,06/23.0/2020,2000,g  9.5,2.0
# From MPC102101
168P/Hergenrother,e,21.6131,355.4623,14.9913,3.581915,0.1453889,0.62068553,46.9357,06/23.0/2020,2000,g 15.5,4.0
# From MPEC 2020-L06
169P/NEAT,e,11.2960,176.0902,218.0665,2.601422,0.2349026,0.76797305,184.5420,06/23.0/2020,2000,g 16.0,2.0
# From MPC 89012
170P/Christensen,e,10.1250,142.9214,225.6410,4.198218,0.1145794,0.30343222,241.6696,06/23.0/2020,2000,g 12.0,4.0
# From MPC102102
171P/Spahr,e,21.9336,101.6974,347.1172,3.556487,0.1469509,0.50166239,77.3585,06/23.0/2020,2000,g 13.5,4.0
# From MPEC 2019-VB6
172P/Yeung,e,11.2327,30.8969,209.3808,4.210687,0.1140708,0.20611672,136.5649,06/23.0/2020,2000,g 13.0,4.0
# From MPEC 2020-HN5
173P/Mueller,e,16.4973,100.4007,29.3466,5.700958,0.0724073,0.26051984,320.6813,06/23.0/2020,2000,g  7.5,4.0
# From MPC 92985
174P/Echeclus,e,4.3431,173.2603,162.9222,10.70403,0.0281438,0.45710116,53.1276,06/23.0/2020,2000,g  9.4,2.0
# From MPC114608
175P/Hergenrother,e,6.0778,123.5272,56.2589,3.429775,0.1551692,0.43239303,41.2835,06/23.0/2020,2000,g 14.0,4.0
# From MPC 89015
176P/LINEAR,e,0.2348,345.8877,35.1346,3.193137,0.1727339,0.19298165,207.2987,06/23.0/2020,2000,g 15.1,2.0
# From MPEC 2020-L06
177P/Barnard,e,31.3339,272.3519,60.1570,24.38126,0.0081869,0.95513028,41.3104,06/23.0/2020,2000,g 15.0,4.0
# From MPC105242
178P/Hug-Bell,e,11.0897,102.8742,297.7845,3.630255,0.1424946,0.48177947,356.6361,06/23.0/2020,2000,g 13.5,4.0
# From MPC 75723
179P/Jedicke,e,19.8989,115.5257,296.5170,5.942688,0.0680346,0.30616870,312.1270,06/23.0/2020,2000,g  2.5,8.0
# From MPC100284
180P/NEAT,e,16.8683,84.5571,94.8908,3.861233,0.1299018,0.35332084,215.1827,06/23.0/2020,2000,g 11.0,4.0
# From MPC 89012
181P/Shoemaker-Levy,e,17.4859,35.4116,336.2530,3.871024,0.1294092,0.70037388,286.8996,06/23.0/2020,2000,g 11.5,4.0
# From MPEC 2014-J10
182P/LONEOS,e,16.2344,72.7150,53.8340,2.956218,0.1939097,0.66169058,226.4125,06/23.0/2020,2000,g 18.0,4.0
# From MPC110085
183P/Korlevic-Juric,e,18.6787,5.3046,163.9946,4.519636,0.1025768,0.13963676,96.3057,06/23.0/2020,2000,g 12.5,2.0
# From MPC105242
184P/Lovas,e,4.5729,173.2585,186.4254,3.794811,0.1333272,0.55115710,343.3112,06/23.0/2020,2000,g 13.5,4.0
# From MPC109593
185P/Petriew,e,13.9979,214.0958,181.8838,3.099517,0.1806188,0.69890290,158.4979,06/23.0/2020,2000,g 15.0,4.0
# From MPEC 2020-L06
186P/Garradd,e,28.5271,326.7876,283.9284,5.011860,0.0878427,0.12437089,36.5436,06/23.0/2020,2000,g  7.5,4.0
# From MPC104795
187P/LINEAR,e,13.6347,109.9235,132.2065,4.573719,0.1007627,0.15241675,77.2613,06/23.0/2020,2000,g  9.0,4.0
# From MPC106349
188P/LINEAR-Mueller,e,10.5198,358.9562,26.5884,4.376229,0.1076599,0.41521211,131.5734,06/23.0/2020,2000,g 11.5,4.0
# From MPC106349
189P/NEAT,e,20.0742,281.7412,16.2536,2.947238,0.1947965,0.58873084,204.8154,06/23.0/2020,2000,g 19.0,4.0
# From MPC 75724
190P/Mueller,e,2.1741,335.5766,50.2797,4.235815,0.1130573,0.52077807,173.8389,06/23.0/2020,2000,g 13.0,4.0
# From MPC 92277
191P/McNaught,e,8.8437,98.2398,283.9236,3.638724,0.1419974,0.38647102,321.6815,06/23.0/2020,2000,g 13.0,4.0
# From MPC 75724
192P/Shoemaker-Levy,e,24.5347,51.6434,312.9054,6.478680,0.0597688,0.77279414,274.4118,06/23.0/2020,2000,g 15.0,4.0
# From MPC 92277
193P/LINEAR-NEAT,e,10.6868,335.1914,8.2497,3.575804,0.1457617,0.39404796,297.5089,06/23.0/2020,2000,g 14.0,4.0
# From MPC 98566
194P/LINEAR,e,11.1834,351.5738,130.7749,3.986106,0.1238457,0.57790303,194.9291,06/23.0/2020,2000,g 16.0,4.0
# From MPC 75724
195P/Hill,e,36.3409,243.1001,249.4668,6.498588,0.0594943,0.31325532,249.1632,06/23.0/2020,2000,g  8.5,4.0
# From MPC 92985
196P/Tichy,e,19.3007,24.2046,12.3120,3.797960,0.1331615,0.42861572,245.5795,06/23.0/2020,2000,g 13.5,4.0
# From MPC 94676
197P/LINEAR,e,25.5482,66.3941,188.7360,2.867291,0.2030002,0.62990629,177.8453,06/23.0/2020,2000,g 16.5,2.0
# From NK 1596
198P/ODAS,e,1.3386,358.2507,69.2553,3.600449,0.1442677,0.44311849,80.3892,06/23.0/2020,2000,g  9.0,4.0
# From MPC 75725
199P/Shoemaker,e,24.9354,92.3992,191.5777,5.898128,0.0688070,0.50608758,281.5235,06/23.0/2020,2000,g 10.0,4.0
# From MPC118098
200P/Larsen,e,12.1041,234.8035,134.0082,4.937476,0.0898352,0.33218890,29.6722,06/23.0/2020,2000,g  9.0,4.0
# From MPC 93588
201P/LONEOS,e,5.7363,19.8776,41.3473,3.359455,0.1600667,0.63755155,305.9796,06/23.0/2020,2000,g 14.0,4.0
# From MPC103849
202P/Scotti,e,2.0296,181.6751,275.3137,3.993573,0.1234985,0.28483832,185.3479,06/23.0/2020,2000,g 13.5,4.0
# From MPEC 2019-TG9
203P/Korlevic,e,2.9734,290.3487,154.8627,4.671075,0.0976290,0.31499011,10.7423,06/23.0/2020,2000,g 14.5,2.0
# From MPC 98566
204P/LINEAR-NEAT,e,6.6388,108.8419,354.9597,3.627148,0.1426777,0.48220049,234.7157,06/23.0/2020,2000,g 14.0,4.0
# From MPC 98566
205P/Giacobini,e,15.3014,179.5998,154.1863,3.542929,0.1477953,0.56784165,275.8319,06/23.0/2020,2000,g 13.0,4.0
# From MPC 75725
206P/Barnard-Boattini,e,33.6305,202.3648,189.4381,3.488583,0.1512622,0.55144096,321.5093,06/23.0/2020,2000,g 19.0,4.0
# From MPC 75725
207P/NEAT,e,10.1513,199.5168,272.0268,3.865036,0.1297101,0.76016510,188.7152,06/23.0/2020,2000,g 16.0,4.0
# From MPC101100
208P/McMillan,e,4.4091,36.3655,310.3896,4.047209,0.1210516,0.37330968,175.6847,06/23.0/2020,2000,g 12.5,4.0
# From MPC 90771
209P/LINEAR,e,21.2582,62.7667,152.4857,2.960413,0.1934976,0.67323081,72.7989,06/23.0/2020,2000,g 17.0,2.0
# From MPC105242
210P/Christensen,e,10.2619,93.8354,345.9077,3.165707,0.1749839,0.83321775,13.3123,06/23.0/2020,2000,g 13.5,4.0
# From MPC 96868
211P/Hill,e,18.9217,117.1389,4.1369,3.548752,0.1474316,0.34250677,237.0406,06/23.0/2020,2000,g 12.5,4.0
# From MPC104795
212P/NEAT,e,22.5989,98.6679,14.2256,3.880960,0.1289126,0.58935983,178.2995,06/23.0/2020,2000,g 17.0,2.0
# From MPC114608
213P/Van Ness,e,10.3825,311.3000,5.6028,3.348223,0.1608728,0.40810164,161.1984,06/23.0/2020,2000,g 10.5,4.0
# From MPC 92986
214P/LINEAR,e,15.1859,348.2610,190.2856,3.615994,0.1433384,0.48597946,241.6932,06/23.0/2020,2000,g 13.0,4.0
# From MPC118098
215P/NEAT,e,10.5815,56.6835,262.0724,4.327887,0.1094688,0.16706196,23.8372,06/23.0/2020,2000,g 11.0,4.0
# From MPC100284
216P/LINEAR,e,9.0513,359.8194,151.3702,3.870125,0.1294544,0.44554651,192.2809,06/23.0/2020,2000,g 13.0,4.0
# From MPC108598
217P/LINEAR,e,12.8643,125.4772,246.8474,3.951781,0.1254627,0.68825758,134.5172,06/23.0/2020,2000,g 12.0,4.0
# From MPEC 2020-L06
218P/LINEAR,e,2.7254,175.9759,59.7827,3.094085,0.1810947,0.62188472,341.3881,06/23.0/2020,2000,g 16.0,4.0
# From MPC100284
219P/LINEAR,e,11.5292,230.9986,107.3572,3.650949,0.1412848,0.35354798,172.0283,06/23.0/2020,2000,g 11.0,4.0
# From MPEC 2020-L06
220P/McNaught,e,8.1279,150.1081,180.5490,3.116000,0.1791876,0.50186560,329.4192,06/23.0/2020,2000,g 15.0,4.0
# From MPC 93589
221P/LINEAR,e,11.4261,229.7233,40.0426,3.457761,0.1532892,0.49283884,276.7742,06/23.0/2020,2000,g 14.5,4.0
# From MPC 92277
222P/LINEAR,e,5.0949,6.7963,346.2278,2.899350,0.1996426,0.71440423,76.6446,06/23.0/2020,2000,g 20.0,4.0
# From MPEC 2020-HN5
223P/Skiff,e,27.0168,346.7754,37.8201,4.159107,0.1161994,0.41567477,59.5780,06/23.0/2020,2000,g 12.0,4.0
# From MPC 75727
224P/LINEAR-NEAT,e,13.3235,40.3520,16.7962,3.437362,0.1546558,0.40851045,231.8212,06/23.0/2020,2000,g 15.5,4.0
# From MPC 75727
225P/LINEAR,e,21.3490,14.1836,3.8669,3.651091,0.1412766,0.63761477,198.7051,06/23.0/2020,2000,g 18.0,4.0
# From MPC106349
226P/Pigott-LINEAR-Kowalski,e,44.0072,54.0050,341.0522,3.767926,0.1347567,0.52817793,187.0741,06/23.0/2020,2000,g 12.5,4.0
# From MPC102956
227P/Catalina-LINEAR,e,6.5089,49.4265,90.1316,3.570248,0.1461021,0.50573298,160.0023,06/23.0/2020,2000,g 16.5,2.0
# From MPEC 2020-L06
228P/LINEAR,e,7.9099,30.9850,115.2902,4.173559,0.1155964,0.17676493,12.0683,06/23.0/2020,2000,g 14.5,2.0
# From MPC106349
229P/Gibbs,e,26.0856,157.8991,223.9804,3.931443,0.1264375,0.37650465,142.7925,06/23.0/2020,2000,g 13.0,4.0
# From MPC110497
230P/LINEAR,e,15.5169,107.0197,313.6784,3.447585,0.1539684,0.54884094,262.5271,06/23.0/2020,2000,g 13.0,4.0
# From MPC114608
231P/LINEAR-NEAT,e,12.3343,133.0239,42.8808,4.018613,0.1223460,0.24764836,45.7788,06/23.0/2020,2000,g 14.5,2.0
# From MPC112394
232P/Hill,e,14.6310,56.0212,53.4873,4.482502,0.1038540,0.33428282,46.0864,06/23.0/2020,2000,g 11.5,4.0
# From MPC 92986
233P/La Sagra,e,11.2840,74.9272,27.0654,3.030450,0.1868286,0.41175743,341.1887,06/23.0/2020,2000,g 15.0,4.0
# From MPC110497
234P/LINEAR,e,11.5244,179.5682,357.3849,3.802997,0.1328970,0.25409105,148.9255,06/23.0/2020,2000,g 12.0,4.0
# From MPC110497
235P/LINEAR,e,8.8874,203.8948,333.5191,3.983097,0.1239860,0.31958858,102.8285,06/23.0/2020,2000,g 12.0,4.0
# From MPC107688
236P/LINEAR,e,16.3338,245.6550,119.1973,3.731254,0.1367483,0.50844409,129.3063,06/23.0/2020,2000,g 14.0,4.0
# From MPC109593
